{"type": "FeatureCollection", "features": [ {"type": "Feature", "properties": {"norad_id": 34117, "name": "COSMOS 2251 DEB", "group": "cosmos-2251-debris", "lat": -58.67872787077429, "lon": -40.97395368489643, "alt_km": 788.3279236102962, "timestamp": "2025-12-10T23:33:13.211843+00:00", "meta": {"OBJECT_NAME": "COSMOS 2251 DEB", "OBJECT_ID": "1993-036KN", "EPOCH": "2025-12-10T10:30:21.056544", "MEAN_MOTION": 14.39996052, "ECCENTRICITY": 0.00544663, "INCLINATION": 74.0405, "RA_OF_ASC_NODE": 348.0816, "ARG_OF_PERICENTER": 65.1472, "MEAN_ANOMALY": 295.5332, "EPHEMERIS_TYPE": 0, "CLASSIFICATION_TYPE": "U", "NORAD_CAT_ID": 34117, "ELEMENT_SET_NO": 999, "REV_AT_EPOCH": 88090, "BSTAR": 0.00096164004, "MEAN_MOTION_DOT": 3.057e-05, "MEAN_MOTION_DDOT": 0}, "tle": {"line1": "1 34117U 93036KN  25344.43774371  .00003057  00000+0  96164-3 0  9994", "line2": "2 34117  74.0405 348.0816 0054466  65.1472 295.5332 14.39996052880900"}}, "geometry": {"type": "Point", "coordinates": [-40.97395368489643, -58.67872787077429]}}, {"type": "Feature", "properties": {"norad_id": 34118, "name": "COSMOS 2251 DEB", "group": "cosmos-2251-debris", "lat": 26.065581534931002, "lon": -99.04307926267032, "alt_km": 561.5015754105207, "timestamp": "2025-12-10T23:33:13.211852+00:00", "meta": {"OBJECT_NAME": "COSMOS 2251 DEB", "OBJECT_ID": "1993-036KP", "EPOCH": "2025-12-10T11:05:55.153824", "MEAN_MOTION": 14.93796734, "ECCENTRICITY": 0.00599119, "INCLINATION": 73.9523, "RA_OF_ASC_NODE": 253.9124, "ARG_OF_PERICENTER": 84.8486, "MEAN_ANOMALY": 33.3855, "EPHEMERIS_TYPE": 0, "CLASSIFICATION_TYPE": "U", "NORAD_CAT_ID": 34118, "ELEMENT_SET_NO": 999, "REV_AT_EPOCH": 89142, "BSTAR": 0.0029924674, "MEAN_MOTION_DOT": 0.00032999, "MEAN_MOTION_DDOT": 0}, "tle": {"line1": "1 34118U 93036KP  25344.46244391  .00032999  00000+0  29925-2 0  9999", "line2": "2 34118  73.9523 253.9124 0059911  84.8486  33.3855 14.93796734891421"}}, "geometry": {"type": "Point", "coordinates": [-99.04307926267032, 26.065581534931002]}}, {"type": "Feature", "properties": {"norad_id": 34120, "name": "COSMOS 2251 DEB", "group": "cosmos-2251-debris", "lat": -41.72806322467373, "lon": -155.56829184928324, "alt_km": 904.6878482042357, "timestamp": "2025-12-10T23:33:13.211861+00:00", "meta": {"OBJECT_NAME": "COSMOS 2251 DEB", "OBJECT_ID": "1993-036KR", "EPOCH": "2025-12-10T01:59:33.650304", "MEAN_MOTION": 13.98678879, "ECCENTRICITY": 0.01818435, "INCLINATION": 73.9915, "RA_OF_ASC_NODE": 220.8223, "ARG_OF_PERICENTER": 49.1022, "MEAN_ANOMALY": 67.4561, "EPHEMERIS_TYPE": 0, "CLASSIFICATION_TYPE": "U", "NORAD_CAT_ID": 34120, "ELEMENT_SET_NO": 999, "REV_AT_EPOCH": 85943, "BSTAR": 0.00050360812, "MEAN_MOTION_DOT": 8.1e-06, "MEAN_MOTION_DDOT": 0}, "tle": {"line1": "1 34120U 93036KR  25344.08302836  .00000810  00000+0  50361-3 0  9995", "line2": "2 34120  73.9915 220.8223 0181843  49.1022  67.4561 13.98678879859432"}}, "geometry": {"type": "Point", "coordinates": [-155.56829184928324, -41.72806322467373]}}, {"type": "Feature", "properties": {"norad_id": 34121, "name": "COSMOS 2251 DEB", "group": "cosmos-2251-debris", "lat": -29.768903039404126, "lon": -70.3656884329478, "alt_km": 938.5673894028805, "timestamp": "2025-12-10T23:33:13.211870+00:00", "meta": {"OBJECT_NAME": "COSMOS 2251 DEB", "OBJECT_ID": "1993-036KS", "EPOCH": "2025-12-10T13:58:09.219360", "MEAN_MOTION": 13.91917312, "ECCENTRICITY": 0.02401241, "INCLINATION": 73.9929, "RA_OF_ASC_NODE": 100.868, "ARG_OF_PERICENTER": 306.7809, "MEAN_ANOMALY": 66.62, "EPHEMERIS_TYPE": 0, "CLASSIFICATION_TYPE": "U", "NORAD_CAT_ID": 34121, "ELEMENT_SET_NO": 999, "REV_AT_EPOCH": 85095, "BSTAR": 0.0017290858, "MEAN_MOTION_DOT": 2.764e-05, "MEAN_MOTION_DDOT": 0}, "tle": {"line1": "1 34121U 93036KS  25344.58205115  .00002764  00000+0  17291-2 0  9997", "line2": "2 34121  73.9929 100.8680 0240124 306.7809  66.6200 13.91917312850955"}}, "geometry": {"type": "Point", "coordinates": [-70.3656884329478, -29.768903039404126]}}, {"type": "Feature", "properties": {"norad_id": 34122, "name": "COSMOS 2251 DEB", "group": "cosmos-2251-debris", "lat": 1.1608027910278287, "lon": 122.34968511978104, "alt_km": 623.016392777784, "timestamp": "2025-12-10T23:33:13.211879+00:00", "meta": {"OBJECT_NAME": "COSMOS 2251 DEB", "OBJECT_ID": "1993-036KT", "EPOCH": "2025-12-10T10:41:19.364928", "MEAN_MOTION": 14.64998703, "ECCENTRICITY": 0.00841937, "INCLINATION": 74.036, "RA_OF_ASC_NODE": 123.0481, "ARG_OF_PERICENTER": 20.5599, "MEAN_ANOMALY": 35.1477, "EPHEMERIS_TYPE": 0, "CLASSIFICATION_TYPE": "U", "NORAD_CAT_ID": 34122, "ELEMENT_SET_NO": 999, "REV_AT_EPOCH": 88651, "BSTAR": 0.0017251567, "MEAN_MOTION_DOT": 9.721e-05, "MEAN_MOTION_DDOT": 0}, "tle": {"line1": "1 34122U 93036KT  25344.44536302  .00009721  00000+0  17252-2 0  9995", "line2": "2 34122  74.0360 123.0481 0084193  20.5599  35.1477 14.64998703886514"}}, "geometry": {"type": "Point", "coordinates": [122.34968511978104, 1.1608027910278287]}}, {"type": "Feature", "properties": {"norad_id": 34127, "name": "COSMOS 2251 DEB", "group": "cosmos-2251-debris", "lat": 53.48556035540718, "lon": -155.47725207949762, "alt_km": 826.9662934918042, "timestamp": "2025-12-10T23:33:13.211888+00:00", "meta": {"OBJECT_NAME": "COSMOS 2251 DEB", "OBJECT_ID": "1993-036KY", "EPOCH": "2025-12-10T04:39:56.961792", "MEAN_MOTION": 14.31501801, "ECCENTRICITY": 0.01149213, "INCLINATION": 74.179, "RA_OF_ASC_NODE": 48.4635, "ARG_OF_PERICENTER": 249.1574, "MEAN_ANOMALY": 141.1493, "EPHEMERIS_TYPE": 0, "CLASSIFICATION_TYPE": "U", "NORAD_CAT_ID": 34127, "ELEMENT_SET_NO": 999, "REV_AT_EPOCH": 86735, "BSTAR": 0.0025855859, "MEAN_MOTION_DOT": 7.369e-05, "MEAN_MOTION_DDOT": 0}, "tle": {"line1": "1 34127U 93036KY  25344.19440928  .00007369  00000+0  25856-2 0  9995", "line2": "2 34127  74.1790  48.4635 0114921 249.1574 141.1493 14.31501801867353"}}, "geometry": {"type": "Point", "coordinates": [-155.47725207949762, 53.48556035540718]}}, {"type": "Feature", "properties": {"norad_id": 34128, "name": "COSMOS 2251 DEB", "group": "cosmos-2251-debris", "lat": -64.87383670049945, "lon": 158.03432173964646, "alt_km": 588.0052534062588, "timestamp": "2025-12-10T23:33:13.211897+00:00", "meta": {"OBJECT_NAME": "COSMOS 2251 DEB", "OBJECT_ID": "1993-036KZ", "EPOCH": "2025-12-10T07:00:14.385888", "MEAN_MOTION": 15.00965109, "ECCENTRICITY": 0.0026257, "INCLINATION": 73.9998, "RA_OF_ASC_NODE": 301.718, "ARG_OF_PERICENTER": 54.4419, "MEAN_ANOMALY": 71.4284, "EPHEMERIS_TYPE": 0, "CLASSIFICATION_TYPE": "U", "NORAD_CAT_ID": 34128, "ELEMENT_SET_NO": 999, "REV_AT_EPOCH": 89130, "BSTAR": 0.0029279, "MEAN_MOTION_DOT": 0.00037786, "MEAN_MOTION_DDOT": 0}, "tle": {"line1": "1 34128U 93036KZ  25344.29183317  .00037786  00000+0  29279-2 0  9992", "line2": "2 34128  73.9998 301.7180 0026257  54.4419  71.4284 15.00965109891307"}}, "geometry": {"type": "Point", "coordinates": [158.03432173964646, -64.87383670049945]}}, {"type": "Feature", "properties": {"norad_id": 34129, "name": "COSMOS 2251 DEB", "group": "cosmos-2251-debris", "lat": -30.934284499276792, "lon": -26.91114060948245, "alt_km": 651.5384978180882, "timestamp": "2025-12-10T23:33:13.211906+00:00", "meta": {"OBJECT_NAME": "COSMOS 2251 DEB", "OBJECT_ID": "1993-036LA", "EPOCH": "2025-12-10T10:40:59.717568", "MEAN_MOTION": 14.75667081, "ECCENTRICITY": 0.00328418, "INCLINATION": 74.0356, "RA_OF_ASC_NODE": 344.016, "ARG_OF_PERICENTER": 66.3081, "MEAN_ANOMALY": 294.1533, "EPHEMERIS_TYPE": 0, "CLASSIFICATION_TYPE": "U", "NORAD_CAT_ID": 34129, "ELEMENT_SET_NO": 999, "REV_AT_EPOCH": 61264, "BSTAR": 0.0019116163, "MEAN_MOTION_DOT": 0.0001317, "MEAN_MOTION_DDOT": 0}, "tle": {"line1": "1 34129U 93036LA  25344.44513562  .00013170  00000+0  19116-2 0  9999", "line2": "2 34129  74.0356 344.0160 0032841  66.3081 294.1533 14.75667081612647"}}, "geometry": {"type": "Point", "coordinates": [-26.91114060948245, -30.934284499276792]}}, {"type": "Feature", "properties": {"norad_id": 34136, "name": "COSMOS 2251 DEB", "group": "cosmos-2251-debris", "lat": 73.5009469185264, "lon": 150.764676543775, "alt_km": 606.0764084536559, "timestamp": "2025-12-10T23:33:13.211915+00:00", "meta": {"OBJECT_NAME": "COSMOS 2251 DEB", "OBJECT_ID": "1993-036LH", "EPOCH": "2025-12-10T15:43:00.272928", "MEAN_MOTION": 14.80057428, "ECCENTRICITY": 0.00859704, "INCLINATION": 74.0207, "RA_OF_ASC_NODE": 46.7441, "ARG_OF_PERICENTER": 170.254, "MEAN_ANOMALY": 345.6732, "EPHEMERIS_TYPE": 0, "CLASSIFICATION_TYPE": "U", "NORAD_CAT_ID": 34136, "ELEMENT_SET_NO": 999, "REV_AT_EPOCH": 89979, "BSTAR": 0.00074958436, "MEAN_MOTION_DOT": 6.017e-05, "MEAN_MOTION_DDOT": 0}, "tle": {"line1": "1 34136U 93036LH  25344.65486427  .00006017  00000+0  74958-3 0  9997", "line2": "2 34136  74.0207  46.7441 0085970 170.2540 345.6732 14.80057428899794"}}, "geometry": {"type": "Point", "coordinates": [150.764676543775, 73.5009469185264]}}, {"type": "Feature", "properties": {"norad_id": 34139, "name": "COSMOS 2251 DEB", "group": "cosmos-2251-debris", "lat": -48.379268479301935, "lon": -121.3862291690529, "alt_km": 674.4724835759507, "timestamp": "2025-12-10T23:33:13.211924+00:00", "meta": {"OBJECT_NAME": "COSMOS 2251 DEB", "OBJECT_ID": "1993-036LL", "EPOCH": "2025-12-10T04:43:35.266080", "MEAN_MOTION": 14.59005201, "ECCENTRICITY": 0.00425472, "INCLINATION": 74.031, "RA_OF_ASC_NODE": 258.9095, "ARG_OF_PERICENTER": 330.4044, "MEAN_ANOMALY": 180.1161, "EPHEMERIS_TYPE": 0, "CLASSIFICATION_TYPE": "U", "NORAD_CAT_ID": 34139, "ELEMENT_SET_NO": 999, "REV_AT_EPOCH": 88112, "BSTAR": 0.0022458073, "MEAN_MOTION_DOT": 0.00010666, "MEAN_MOTION_DDOT": 0}, "tle": {"line1": "1 34139U 93036LL  25344.19693595  .00010666  00000+0  22458-2 0  9997", "line2": "2 34139  74.0310 258.9095 0042547 330.4044 180.1161 14.59005201881120"}}, "geometry": {"type": "Point", "coordinates": [-121.3862291690529, -48.379268479301935]}}]}